[{"OBJECT_NAME":"SAUDISAT 1C (SO-50)","OBJECT_ID":"2002-058C","EPOCH":"2026-03-09T14:49:05.437056","MEAN_MOTION":14.82783142,"ECCENTRICITY":0.0075248,"INCLINATION":64.5524,"RA_OF_ASC_NODE":76.9957,"ARG_OF_PERICENTER":280.7497,"MEAN_ANOMALY":78.5144,"EPHEMERIS_TYPE":0,"CLASSIFICATION_TYPE":"U","NORAD_CAT_ID":27607,"ELEMENT_SET_NO":999,"REV_AT_EPOCH":24969,"BSTAR":0.00027919,"MEAN_MOTION_DOT":2.222e-5,"MEAN_MOTION_DDOT":0},{"OBJECT_NAME":"SL-14 R\/B","OBJECT_ID":"1986-006B","EPOCH":"2026-03-09T22:10:50.144736","MEAN_MOTION":14.86815194,"ECCENTRICITY":0.00750516,"INCLINATION":82.5234,"RA_OF_ASC_NODE":259.5165,"ARG_OF_PERICENTER":271.9927,"MEAN_ANOMALY":87.2696,"EPHEMERIS_TYPE":0,"CLASSIFICATION_TYPE":"U","NORAD_CAT_ID":16496,"ELEMENT_SET_NO":999,"REV_AT_EPOCH":14924,"BSTAR":8.3491519e-5,"MEAN_MOTION_DOT":8.08e-6,"MEAN_MOTION_DDOT":0}]
